KUIPER-00053            
1 64513U 25134P   25336.83336806  .00256478  00000+0  33688-1 0  9990
2 64513  51.9013 291.3847 0001558   2.4075 157.1280 14.78291200  1505
KUIPER-00054            
1 64514U 25134Q   25336.26840093  .00007921  00000+0  10658-2 0  9996
2 64514  51.8984 288.8759 0005276 353.7594   6.3302 14.79971869 25855
KUIPER-00055            
1 64515U 25134R   25336.06827006  .00020662  00000+0  10333-2 0  9991
2 64515  51.8936 278.5606 0002702 121.6997 238.4246 15.17393269 25984
KUIPER-00056            
1 64516U 25134S   25336.32880161 -.00000045  00000+0  23144-4 0  9992
2 64516  51.9047 294.6495 0002107 347.3134  12.7775 14.79956140 25781
KUIPER-00057            
1 64517U 25134T   25336.59084855  .00008134  00000+0  10935-2 0  9996
2 64517  51.9014 300.9806 0009365 320.1493  39.8781 14.79959958 25713
KUIPER-00058            
1 64518U 25134U   25336.32778501  .00036547  00000+0  47939-2 0  9999
2 64518  51.9016 296.0615 0004570 359.8374   0.2586 14.79954460 25762
KUIPER-00059            
1 64519U 25134V   25336.60327582  .00004335  00000+0  59699-3 0  9997
2 64519  51.8994 289.8989 0003978 137.8720 222.2549 14.79957938 25871
KUIPER-00060            
1 64520U 25134W   25336.59935599 -.00017164  00000+0 -22191-2 0  9992
2 64520  51.9031 290.9302 0003961  54.0551 306.0778 14.80094623 25849
